{
  "type": "FeatureCollection",
  "features": [
    {
      "type": "Feature",
      "properties": {
        "norad_id": 41581,
        "name": "INTELSAT 31 (IS-31)",
        "group": "intelsat",
        "lat": -0.021747309681572513,
        "lon": -122.22305086903685,
        "alt_km": 35779.31716522429,
        "timestamp": "2025-12-09T16:56:36.248216+00:00",
        "meta_object_name": "INTELSAT 31 (IS-31)",
        "meta_object_id": "2016-035A",
        "meta_epoch": "2025-12-09T11:18:23.865120",
        "meta_mean_motion": 1.00269264,
        "meta_eccentricity": 0.0001865,
        "meta_inclination": 0.0173,
        "meta_ra_of_asc_node": 272.0152,
        "meta_arg_of_pericenter": 307.5396,
        "meta_mean_anomaly": 293.4379,
        "meta_ephemeris_type": 0,
        "meta_classification_type": "U",
        "meta_norad_cat_id": 41581,
        "meta_element_set_no": 999,
        "meta_rev_at_epoch": 3478,
        "meta_bstar": 0,
        "meta_mean_motion_dot": -1.48e-06,
        "meta_mean_motion_ddot": 0,
        "tle_line1": "1 41581U 16035A   25343.47110955 -.00000148  00000+0  00000+0 0  9995",
        "tle_line2": "2 41581   0.0173 272.0152 0001865 307.5396 293.4379  1.00269264 34783"
      },
      "geometry": {
        "type": "Point",
        "coordinates": [
          -122.22305086903685,
          -0.021747309681572513
        ]
      }
    },
    {
      "type": "Feature",
      "properties": {
        "norad_id": 41747,
        "name": "INTELSAT 36 (IS-36)",
        "group": "intelsat",
        "lat": 0.02336553681294555,
        "lon": 41.34857449924287,
        "alt_km": 35786.09797283457,
        "timestamp": "2025-12-09T16:56:36.248228+00:00",
        "meta_object_name": "INTELSAT 36 (IS-36)",
        "meta_object_id": "2016-053A",
        "meta_epoch": "2025-12-09T10:28:32.982240",
        "meta_mean_motion": 1.00269892,
        "meta_eccentricity": 0.0001412,
        "meta_inclination": 0.0115,
        "meta_ra_of_asc_node": 359.5133,
        "meta_arg_of_pericenter": 316.9203,
        "meta_mean_anomaly": 347.6248,
        "meta_ephemeris_type": 0,
        "meta_classification_type": "U",
        "meta_norad_cat_id": 41747,
        "meta_element_set_no": 999,
        "meta_rev_at_epoch": 3404,
        "meta_bstar": 0,
        "meta_mean_motion_dot": -2.2e-07,
        "meta_mean_motion_ddot": 0,
        "tle_line1": "1 41747U 16053A   25343.43649285 -.00000022  00000+0  00000+0 0  9999",
        "tle_line2": "2 41747   0.0115 359.5133 0001412 316.9203 347.6248  1.00269892 34045"
      },
      "geometry": {
        "type": "Point",
        "coordinates": [
          41.34857449924287,
          0.02336553681294555
        ]
      }
    },
    {
      "type": "Feature",
      "properties": {
        "norad_id": 41945,
        "name": "INTELSAT 32E (IS-32E)",
        "group": "intelsat",
        "lat": -0.028019348020078445,
        "lon": -70.34056203518487,
        "alt_km": 35786.066521849905,
        "timestamp": "2025-12-09T16:56:36.248239+00:00",
        "meta_object_name": "INTELSAT 32E (IS-32E)",
        "meta_object_id": "2017-007B",
        "meta_epoch": "2025-12-09T09:56:36.041856",
        "meta_mean_motion": 1.0026938,
        "meta_eccentricity": 4.32e-05,
        "meta_inclination": 0.0267,
        "meta_ra_of_asc_node": 67.7306,
        "meta_arg_of_pericenter": 288.2738,
        "meta_mean_anomaly": 188.377,
        "meta_ephemeris_type": 0,
        "meta_classification_type": "U",
        "meta_norad_cat_id": 41945,
        "meta_element_set_no": 999,
        "meta_rev_at_epoch": 3232,
        "meta_bstar": 0,
        "meta_mean_motion_dot": -2.67e-06,
        "meta_mean_motion_ddot": 0,
        "tle_line1": "1 41945U 17007B   25343.41430604 -.00000267  00000+0  00000+0 0  9991",
        "tle_line2": "2 41945   0.0267  67.7306 0000432 288.2738 188.3770  1.00269380 32329"
      },
      "geometry": {
        "type": "Point",
        "coordinates": [
          -70.34056203518487,
          -0.028019348020078445
        ]
      }
    },
    {
      "type": "Feature",
      "properties": {
        "norad_id": 42818,
        "name": "INTELSAT 35E (IS-35E)",
        "group": "intelsat",
        "lat": -0.02383485267329276,
        "lon": -61.64785970470372,
        "alt_km": 35778.61320858471,
        "timestamp": "2025-12-09T16:56:36.248251+00:00",
        "meta_object_name": "INTELSAT 35E (IS-35E)",
        "meta_object_id": "2017-041A",
        "meta_epoch": "2025-12-09T09:59:05.804160",
        "meta_mean_motion": 1.00269353,
        "meta_eccentricity": 0.0002308,
        "meta_inclination": 0.0186,
        "meta_ra_of_asc_node": 333.6977,
        "meta_arg_of_pericenter": 291.5297,
        "meta_mean_anomaly": 288.4535,
        "meta_ephemeris_type": 0,
        "meta_classification_type": "U",
        "meta_norad_cat_id": 42818,
        "meta_element_set_no": 999,
        "meta_rev_at_epoch": 3091,
        "meta_bstar": 0,
        "meta_mean_motion_dot": -2.36e-06,
        "meta_mean_motion_ddot": 0,
        "tle_line1": "1 42818U 17041A   25343.41603940 -.00000236  00000+0  00000+0 0  9990",
        "tle_line2": "2 42818   0.0186 333.6977 0002308 291.5297 288.4535  1.00269353 30913"
      },
      "geometry": {
        "type": "Point",
        "coordinates": [
          -61.64785970470372,
          -0.02383485267329276
        ]
      }
    },
    {
      "type": "Feature",
      "properties": {
        "norad_id": 42950,
        "name": "INTELSAT 37E (IS-37E)",
        "group": "intelsat",
        "lat": -0.024535822369163286,
        "lon": -45.126640795575845,
        "alt_km": 35779.459391964025,
        "timestamp": "2025-12-09T16:56:36.248263+00:00",
        "meta_object_name": "INTELSAT 37E (IS-37E)",
        "meta_object_id": "2017-059A",
        "meta_epoch": "2025-12-09T10:03:50.347872",
        "meta_mean_motion": 1.00270735,
        "meta_eccentricity": 0.0003379,
        "meta_inclination": 0.0166,
        "meta_ra_of_asc_node": 10.0825,
        "meta_arg_of_pericenter": 243.6968,
        "meta_mean_anomaly": 317.5906,
        "meta_ephemeris_type": 0,
        "meta_classification_type": "U",
        "meta_norad_cat_id": 42950,
        "meta_element_set_no": 999,
        "meta_rev_at_epoch": 3016,
        "meta_bstar": 0,
        "meta_mean_motion_dot": -1.39e-06,
        "meta_mean_motion_ddot": 0,
        "tle_line1": "1 42950U 17059A   25343.41933273 -.00000139  00000+0  00000+0 0  9993",
        "tle_line2": "2 42950   0.0166  10.0825 0003379 243.6968 317.5906  1.00270735 30167"
      },
      "geometry": {
        "type": "Point",
        "coordinates": [
          -45.126640795575845,
          -0.024535822369163286
        ]
      }
    },
    {
      "type": "Feature",
      "properties": {
        "norad_id": 43632,
        "name": "AZERSPACE 2 (IS-38)",
        "group": "intelsat",
        "lat": 0.022422793507285904,
        "lon": 17.96369080797425,
        "alt_km": 35789.54395770195,
        "timestamp": "2025-12-09T16:56:36.248275+00:00",
        "meta_object_name": "AZERSPACE 2 (IS-38)",
        "meta_object_id": "2018-074A",
        "meta_epoch": "2025-12-09T05:13:27.067296",
        "meta_mean_motion": 1.00270316,
        "meta_eccentricity": 0.0001557,
        "meta_inclination": 0.0166,
        "meta_ra_of_asc_node": 339.3776,
        "meta_arg_of_pericenter": 280.4096,
        "meta_mean_anomaly": 301.8968,
        "meta_ephemeris_type": 0,
        "meta_classification_type": "U",
        "meta_norad_cat_id": 43632,
        "meta_element_set_no": 999,
        "meta_rev_at_epoch": 2654,
        "meta_bstar": 0,
        "meta_mean_motion_dot": 1.39e-06,
        "meta_mean_motion_ddot": 0,
        "tle_line1": "1 43632U 18074A   25343.21767439  .00000139  00000+0  00000+0 0  9995",
        "tle_line2": "2 43632   0.0166 339.3776 0001557 280.4096 301.8968  1.00270316 26540"
      },
      "geometry": {
        "type": "Point",
        "coordinates": [
          17.96369080797425,
          0.022422793507285904
        ]
      }
    },
    {
      "type": "Feature",
      "properties": {
        "norad_id": 43633,
        "name": "HORIZONS-3E",
        "group": "intelsat",
        "lat": -0.02279104703577054,
        "lon": 141.84370097995216,
        "alt_km": 35791.294758437056,
        "timestamp": "2025-12-09T16:56:36.248287+00:00",
        "meta_object_name": "HORIZONS-3E",
        "meta_object_id": "2018-074B",
        "meta_epoch": "2025-12-09T10:57:07.744032",
        "meta_mean_motion": 1.00268764,
        "meta_eccentricity": 0.0001231,
        "meta_inclination": 0.0427,
        "meta_ra_of_asc_node": 176.8611,
        "meta_arg_of_pericenter": 112.2955,
        "meta_mean_anomaly": 122.5859,
        "meta_ephemeris_type": 0,
        "meta_classification_type": "U",
        "meta_norad_cat_id": 43633,
        "meta_element_set_no": 999,
        "meta_rev_at_epoch": 2643,
        "meta_bstar": 0,
        "meta_mean_motion_dot": -2.8e-07,
        "meta_mean_motion_ddot": 0,
        "tle_line1": "1 43633U 18074B   25343.45633963 -.00000028  00000+0  00000+0 0  9994",
        "tle_line2": "2 43633   0.0427 176.8611 0001231 112.2955 122.5859  1.00268764 26437"
      },
      "geometry": {
        "type": "Point",
        "coordinates": [
          141.84370097995216,
          -0.02279104703577054
        ]
      }
    }
  ]
}